{
  "type": "FeatureCollection",
  "features": [
    {
      "type": "Feature",
      "properties": {
        "norad_id": 34010,
        "name": "COSMOS 2251 DEB",
        "group": "cosmos-2251-debris",
        "lat": -18.650910088217334,
        "lon": -99.46847853492636,
        "alt_km": 510.06081621756584,
        "timestamp": "2025-12-20T22:39:11.018481+00:00",
        "meta_object_name": "COSMOS 2251 DEB",
        "meta_object_id": "1993-036GV",
        "meta_epoch": "2025-12-20T11:40:49.583136",
        "meta_mean_motion": 15.19908704,
        "meta_eccentricity": 0.00045424,
        "meta_inclination": 73.9998,
        "meta_ra_of_asc_node": 267.0494,
        "meta_arg_of_pericenter": 59.5736,
        "meta_mean_anomaly": 300.5909,
        "meta_ephemeris_type": 0,
        "meta_classification_type": "U",
        "meta_norad_cat_id": 34010,
        "meta_element_set_no": 999,
        "meta_rev_at_epoch": 89403,
        "meta_bstar": 0.0027813487,
        "meta_mean_motion_dot": 0.00060248,
        "meta_mean_motion_ddot": 0,
        "tle_line1": "1 34010U 93036GV  25354.48668499  .00060248  00000+0  27813-2 0  9994",
        "tle_line2": "2 34010  73.9998 267.0494 0004542  59.5736 300.5909 15.19908704894031"
      },
      "geometry": {
        "type": "Point",
        "coordinates": [
          -99.46847853492636,
          -18.650910088217334
        ]
      }
    },
    {
      "type": "Feature",
      "properties": {
        "norad_id": 34011,
        "name": "COSMOS 2251 DEB",
        "group": "cosmos-2251-debris",
        "lat": -15.366601409565241,
        "lon": -49.593491780314196,
        "alt_km": 741.0657782058825,
        "timestamp": "2025-12-20T22:39:11.018490+00:00",
        "meta_object_name": "COSMOS 2251 DEB",
        "meta_object_id": "1993-036GW",
        "meta_epoch": "2025-12-20T04:24:32.203584",
        "meta_mean_motion": 14.41801726,
        "meta_eccentricity": 0.00360246,
        "meta_inclination": 74.0145,
        "meta_ra_of_asc_node": 316.3349,
        "meta_arg_of_pericenter": 37.7444,
        "meta_mean_anomaly": 322.6228,
        "meta_ephemeris_type": 0,
        "meta_classification_type": "U",
        "meta_norad_cat_id": 34011,
        "meta_element_set_no": 999,
        "meta_rev_at_epoch": 88023,
        "meta_bstar": 0.00051301232,
        "meta_mean_motion_dot": 1.663e-05,
        "meta_mean_motion_ddot": 0,
        "tle_line1": "1 34011U 93036GW  25354.18370606  .00001663  00000+0  51301-3 0  9998",
        "tle_line2": "2 34011  74.0145 316.3349 0036024  37.7444 322.6228 14.41801726880235"
      },
      "geometry": {
        "type": "Point",
        "coordinates": [
          -49.593491780314196,
          -15.366601409565241
        ]
      }
    },
    {
      "type": "Feature",
      "properties": {
        "norad_id": 34014,
        "name": "COSMOS 2251 DEB",
        "group": "cosmos-2251-debris",
        "lat": 48.7311868668825,
        "lon": 65.65772189893191,
        "alt_km": 644.3095757415749,
        "timestamp": "2025-12-20T22:39:11.018499+00:00",
        "meta_object_name": "COSMOS 2251 DEB",
        "meta_object_id": "1993-036GZ",
        "meta_epoch": "2025-12-20T04:40:40.116864",
        "meta_mean_motion": 14.73220721,
        "meta_eccentricity": 0.003735,
        "meta_inclination": 74.0177,
        "meta_ra_of_asc_node": 266.1803,
        "meta_arg_of_pericenter": 43.7396,
        "meta_mean_anomaly": 73.7485,
        "meta_ephemeris_type": 0,
        "meta_classification_type": "U",
        "meta_norad_cat_id": 34014,
        "meta_element_set_no": 999,
        "meta_rev_at_epoch": 89413,
        "meta_bstar": 0.00061805,
        "meta_mean_motion_dot": 4.003e-05,
        "meta_mean_motion_ddot": 0,
        "tle_line1": "1 34014U 93036GZ  25354.19490876  .00004003  00000+0  61805-3 0  9995",
        "tle_line2": "2 34014  74.0177 266.1803 0037350  43.7396  73.7485 14.73220721894134"
      },
      "geometry": {
        "type": "Point",
        "coordinates": [
          65.65772189893191,
          48.7311868668825
        ]
      }
    },
    {
      "type": "Feature",
      "properties": {
        "norad_id": 34015,
        "name": "COSMOS 2251 DEB",
        "group": "cosmos-2251-debris",
        "lat": -42.09560619026479,
        "lon": -21.248995404608852,
        "alt_km": 684.0592877610052,
        "timestamp": "2025-12-20T22:39:11.018508+00:00",
        "meta_object_name": "COSMOS 2251 DEB",
        "meta_object_id": "1993-036HA",
        "meta_epoch": "2025-12-20T12:02:48.892128",
        "meta_mean_motion": 14.60346101,
        "meta_eccentricity": 0.00209709,
        "meta_inclination": 74.0236,
        "meta_ra_of_asc_node": 144.5948,
        "meta_arg_of_pericenter": 241.268,
        "meta_mean_anomaly": 180.5778,
        "meta_ephemeris_type": 0,
        "meta_classification_type": "U",
        "meta_norad_cat_id": 34015,
        "meta_element_set_no": 999,
        "meta_rev_at_epoch": 88644,
        "meta_bstar": 0.0010034232,
        "meta_mean_motion_dot": 4.84e-05,
        "meta_mean_motion_ddot": 0,
        "tle_line1": "1 34015U 93036HA  25354.50195477  .00004840  00000+0  10034-2 0  9996",
        "tle_line2": "2 34015  74.0236 144.5948 0020970 241.2680 180.5778 14.60346101886445"
      },
      "geometry": {
        "type": "Point",
        "coordinates": [
          -21.248995404608852,
          -42.09560619026479
        ]
      }
    },
    {
      "type": "Feature",
      "properties": {
        "norad_id": 34018,
        "name": "COSMOS 2251 DEB",
        "group": "cosmos-2251-debris",
        "lat": -11.377745442618753,
        "lon": -98.4700084021301,
        "alt_km": 922.9422405340601,
        "timestamp": "2025-12-20T22:39:11.018517+00:00",
        "meta_object_name": "COSMOS 2251 DEB",
        "meta_object_id": "1993-036HD",
        "meta_epoch": "2025-12-20T15:07:49.156320",
        "meta_mean_motion": 13.81080141,
        "meta_eccentricity": 0.02633049,
        "meta_inclination": 73.8781,
        "meta_ra_of_asc_node": 78.7244,
        "meta_arg_of_pericenter": 113.1007,
        "meta_mean_anomaly": 317.8476,
        "meta_ephemeris_type": 0,
        "meta_classification_type": "U",
        "meta_norad_cat_id": 34018,
        "meta_element_set_no": 999,
        "meta_rev_at_epoch": 84766,
        "meta_bstar": 0.0002556685,
        "meta_mean_motion_dot": 3.3e-06,
        "meta_mean_motion_ddot": 0,
        "tle_line1": "1 34018U 93036HD  25354.63043005  .00000330  00000+0  25567-3 0  9990",
        "tle_line2": "2 34018  73.8781  78.7244 0263304 113.1007 317.8476 13.81080141847669"
      },
      "geometry": {
        "type": "Point",
        "coordinates": [
          -98.4700084021301,
          -11.377745442618753
        ]
      }
    },
    {
      "type": "Feature",
      "properties": {
        "norad_id": 34019,
        "name": "COSMOS 2251 DEB",
        "group": "cosmos-2251-debris",
        "lat": 67.30300843806833,
        "lon": 79.13532482457948,
        "alt_km": 806.6102085283728,
        "timestamp": "2025-12-20T22:39:11.018526+00:00",
        "meta_object_name": "COSMOS 2251 DEB",
        "meta_object_id": "1993-036HE",
        "meta_epoch": "2025-12-20T02:20:36.590208",
        "meta_mean_motion": 14.3396801,
        "meta_eccentricity": 0.00624457,
        "meta_inclination": 73.9534,
        "meta_ra_of_asc_node": 37.2082,
        "meta_arg_of_pericenter": 217.3454,
        "meta_mean_anomaly": 170.1183,
        "meta_ephemeris_type": 0,
        "meta_classification_type": "U",
        "meta_norad_cat_id": 34019,
        "meta_element_set_no": 999,
        "meta_rev_at_epoch": 87626,
        "meta_bstar": 0.00054757166,
        "meta_mean_motion_dot": 1.535e-05,
        "meta_mean_motion_ddot": 0,
        "tle_line1": "1 34019U 93036HE  25354.09764572  .00001535  00000+0  54757-3 0  9991",
        "tle_line2": "2 34019  73.9534  37.2082 0062445 217.3454 170.1183 14.33968010876264"
      },
      "geometry": {
        "type": "Point",
        "coordinates": [
          79.13532482457948,
          67.30300843806833
        ]
      }
    },
    {
      "type": "Feature",
      "properties": {
        "norad_id": 34021,
        "name": "COSMOS 2251 DEB",
        "group": "cosmos-2251-debris",
        "lat": -67.77354686013793,
        "lon": 69.95588807958634,
        "alt_km": 719.489093874231,
        "timestamp": "2025-12-20T22:39:11.018535+00:00",
        "meta_object_name": "COSMOS 2251 DEB",
        "meta_object_id": "1993-036HG",
        "meta_epoch": "2025-12-20T02:16:22.461888",
        "meta_mean_motion": 14.4997182,
        "meta_eccentricity": 0.00209719,
        "meta_inclination": 74.0359,
        "meta_ra_of_asc_node": 116.0186,
        "meta_arg_of_pericenter": 259.3851,
        "meta_mean_anomaly": 275.4022,
        "meta_ephemeris_type": 0,
        "meta_classification_type": "U",
        "meta_norad_cat_id": 34021,
        "meta_element_set_no": 999,
        "meta_rev_at_epoch": 88736,
        "meta_bstar": 0.00032124262,
        "meta_mean_motion_dot": 1.219e-05,
        "meta_mean_motion_ddot": 0,
        "tle_line1": "1 34021U 93036HG  25354.09470442  .00001219  00000+0  32124-3 0  9997",
        "tle_line2": "2 34021  74.0359 116.0186 0020971 259.3851 275.4022 14.49971820887364"
      },
      "geometry": {
        "type": "Point",
        "coordinates": [
          69.95588807958634,
          -67.77354686013793
        ]
      }
    }
  ]
}